#dP2019 11 24  0  0  0.00000000      96 __u+U ITR00 FIT  IAC
## 2081      0.00000000   900.00000000 58811 0.0000000000000
+  104   C06C07C08C09C10C11C12C13C14C16C19C20C21C22C23C24C25
+        C26C27C28C29C30C32C33C34C35C36C37E01E02E03E04E05E07
+        E08E09E11E12E13E14E15E18E19E21E24E25E26E27E30E31E33
+        E36G01G02G03G04G05G06G07G08G09G10G11G12G13G14G15G16
+        G17G18G19G20G21G22G23G24G25G26G27G28G29G30G31G32R01
+        R02R03R05R07R08R09R11R12R13R14R15R16R17R18R19R20R21
+        R23R26  0  0  0  0  0  0  0  0  0  0  0  0  0  0  0
++         9  9  8  8  8  7  8  8  8  8  8  8  8  8  8  8  8
++         7  8  8  8  8  8  8  8  8  8  9  5  4  5  4  5  4
++         4  5  5  5  4  4  4  5  4  4  4  4  4  4  4  5  4
++         4  3  4  3  4  4  3  3  4  3  4  3  4  4  4  4  3
++         3  4  3  4  3  3  3  4  3  3  3  4  4  4  3  4  6
++         5  5  6  6  5  5  5  6  6  5  5  6  5  5  6  6  5
++         5  7  0  0  0  0  0  0  0  0  0  0  0  0  0  0  0
%c M  cc GPS ccc cccc cccc cccc cccc ccccc ccccc ccccc ccccc
%c cc cc ccc ccc cccc cccc cccc cccc ccccc ccccc ccccc ccccc
%f  0.0000000  0.000000000  0.00000000000  0.000000000000000
%f  0.0000000  0.000000000  0.00000000000  0.000000000000000
%i    0    0    0    0      0      0      0      0         0
%i    0    0    0    0      0      0      0      0         0
/* INFORMATION & ANALYSIS CENTER (IAC)      ULTRA-RAPID DATA
/* S/V CLOCKS ARE ALIGNED TO GNSS TIME                      
/* G:C1WC2W R:C1PC2P E:C1XC5X C:C2IC6I J:C1CC2S             
/* PCV:IGS14_2076 OL/AL:FES2004  NONE     YN ORB:CoN CLK:CoN
*  2019 11 24 12 30  0.00000000
PC06 -18626.981844  37506.452329  -2101.552108    307.725530
PC07  -8892.521892  27460.046419  31053.176391    216.636019
PC08 -22914.008050  20330.990077 -29043.632632    -40.141621
PC09  -8116.326309  38736.869985  14226.465829    139.114813
PC10   5856.017439  35034.439329  23198.002682   -396.939410
PC11  20799.267475 -18183.123004  -3618.849941    -21.009316
PC12  20051.537114  -2903.535229 -19133.343490    302.525690
PC13  -5656.200741  23566.810592 -34477.623934    122.452083
PC14  11609.151478 -13449.253424  21527.031206    336.492672
PC16 -16617.712824  38640.649682    291.765052   -930.018322
PC19  -5575.058642  21493.303365 -16894.734912    253.299966
PC20 -15459.962966   4003.899207 -22876.624776   -330.939825
PC21  16430.531361  16474.195136  15427.948111    158.922327
PC22   7663.838711  26830.618917   -981.879674   -413.987686
PC23  -9144.177232 -16927.115302 -20206.241515   -875.730320
PC24  25909.556700  -1213.360867 -10257.588885   -880.045693
PC25  11249.611474 -13324.398117 -21782.407218   -424.742772
PC26  25168.562165  10100.485537   6504.294016    472.080533
PC27 -15307.051606  -6473.619207  22404.610230    230.731966
PC28    850.307932 -20114.987787  19324.767267    221.823946
PC29 -15619.548362  22587.136503  -4972.148760    150.504146
PC30 -22070.546878  11550.111747  12567.619963    229.476284
PC32 -16548.594659 -16346.216078 -15408.692117   -863.627400
PC33   5564.801695 -21453.686997  16944.130288   -600.092419
PC34  22145.293191 -11773.148167 -12254.824517   -258.677244
PC35   -230.966735  20208.019923 -19227.316773   -587.026098
PC36 -11761.287190  12981.228138  21751.744534   -896.589017
PC37 -24696.022948 -10957.667621  -6995.482611 999999.999999
PE01 -23061.574964  -2049.263936  18452.117447   -738.474373
PE02  23017.725748   1984.124194 -18490.288492     94.111081
PE03  17267.297180  -7498.402910  22831.532827   -236.518976
PE04 -10829.965233  25345.444110 -10799.167557   -412.004405
PE05  13653.810085  14920.256140  21608.631786   -428.538101
PE07  -2085.915958 -28480.706504  -7769.393252   -303.551303
PE08  10481.272691 -25525.838869  10687.863298   6258.666412
PE09   2279.350904  28457.756729   7849.336849   6242.692242
PE11    787.303116  17094.904542 -24151.988872    107.306304
PE12 -19528.062426  17987.768331 -13073.205482   6084.291679
PE13   -624.150042 -17088.696234  24169.386877    395.709377
PE14  22627.543199 -10451.696486 -18346.615793   -806.053499
PE15  19226.341735 -18117.999598  13355.177384    886.714218
PE18 -15963.760063  20313.445400   4999.759351   -901.287986
PE19 -17244.501058   5131.994943 -23508.060272     -2.751689
PE21 -24246.766910 -16915.844770   1487.936447   -567.651074
PE24  11045.504903  22042.158593  16361.162871   5750.707844
PE25  24205.314599  16980.014804  -1372.713474   -496.639917
PE26 -20328.977058  -6163.559451  20627.137837   3840.495847
PE27 -11160.602124 -21957.132384 -16411.625318    339.040674
PE30   8573.182160 -14067.478615 -24593.381823   4358.982659
PE31  -8447.195632  14094.746663  24633.520832   -470.627467
PE33 -27848.015035   8508.482038   5337.397382   -471.708882
PE36  20140.669130   6034.977992 -20823.850525    632.788649
PG01   7903.265368  13823.607630 -21513.485339   -207.853955
PG02  15338.847368 -14456.192408  16714.295333   -353.153697
PG03  12955.822234  22905.291393  -3997.032575    -41.681019
PG04   9561.030847  13513.478301  20773.826125    -12.549446
PG05   3285.607662 -18071.875347  18976.034265     -3.845917
PG06  25170.428744  -6372.694615   5710.820334   -133.533960
PG07  22797.737395   6944.659996  12494.283439   -155.617812
PG08  -4339.197415  24621.881625  -8590.568057    -14.448731
PG09  11509.916459  11177.439736  21110.448299    -91.457165
PG10 -18708.226441  -4081.701806 -18436.403598   -146.876405
PG11   5059.581731  16069.518917 -21075.686903   -438.822707
PG12  -7932.121334 -23985.258016  -8695.042951    180.216777
PG13  12733.197566 -23194.676436  -1902.140192    -30.868228
PG14 -17493.182427  16851.603428 -10199.771981    -48.677102
PG15    929.250104 -24720.746730  -9420.643598   -270.401862
PG16  -6158.550897  15935.272829  20014.790104    -96.305840
PG17  17473.321384  -7416.556889 -18120.400444    168.763629
PG18  -1502.344392  15775.270493 -21810.592535    102.287592
PG19  18499.351889 -13541.390335 -13719.278273   -235.423617
PG20 -21540.077154 -11853.515880 -10394.899855    527.535994
PG21 -24283.385814  -3739.135806  10600.560911    -81.139633
PG22   8360.649254  22650.241776 -10964.036454   -773.710639
PG23   5252.799998  19593.148303  17290.889046   -153.631379
PG24  -5961.724490 -14925.744756 -21353.535124     -5.324226
PG25 -17651.548087 -19477.256843   4476.517704    -17.340842
PG26 -13202.092548   8148.378937  21547.977256     91.214047
PG27 -12328.470713  23187.082418   2488.359974   -129.812854
PG28  17406.885966   4689.586709 -18857.461180    753.707525
PG29  -9269.325211 -12671.461422  21389.103610     35.864163
PG30  26612.476318   -315.119463   1722.374291    -90.937664
PG31 -24604.930476   7193.992352   7787.737792     -5.330380
PG32 -17569.127091   8130.903040 -18065.547592    135.016535
PR01   9151.526287  19628.402195  13481.119089     53.143427
PR02  10886.897515  -1013.965392  23075.659417    399.273317
PR03   5840.667250 -18567.071647  16546.755139      5.368007
PR05  -9417.193742 -17827.731973 -15638.715989     40.005946
PR07  -5603.176898  18925.459396 -16107.061402    -29.842103
PR08   2557.820341  25363.686196   -623.361057     14.233019
PR09 -21391.773661  -1972.625943  13718.927199    102.763988
PR11   8159.438933  13950.687374  19769.247717     18.922574
PR12  21145.675479  12598.089775   6679.190016     82.026954
PR13  22578.323686   3724.183853 -11282.552180    -31.405549
PR14  10637.514034  -6901.445094 -22118.321636     45.398339
PR15  -7306.140466 -13661.145121 -20241.134907    104.885857
PR16 -21590.262780 -12182.301065  -6292.084311      0.025469
PR17  18921.820387 -16448.123166   4583.363399    278.387378
PR18   7010.797808 -15664.261818  18909.632016     15.621406
PR19  -8359.430100  -6773.678501  23132.629871    -65.559260
PR20 -20680.179462   7250.091399  13034.953122   -397.055480
PR21 -18632.457442  16604.078941  -5354.758590    -87.289560
PR23  13415.514255   2256.831341 -21579.243829    268.860603
PR26 -19246.122191   5082.238162  15984.952082     11.038722
EOF
